AEROCUBE 8D             
1 41852U 16067E   25081.76381029  .00021715  00000+0  11354-2 0  9993
2 41852  98.1143 274.0283 0003751 238.9946 121.0917 15.15887272457486
AEROCUBE 8C             
1 41853U 16067F   25081.77551463  .00022170  00000+0  11555-2 0  9995
2 41853  98.0982 271.9836 0006796 168.9696 191.1685 15.15980459457473
PROMETHEUS 2-1          
1 41854U 16067G   25081.82679721  .00086523  00000+0  21583-2 0  9994
2 41854  98.0888 286.4026 0007997 171.5598 188.5782 15.39839167458256
PROMETHEUS 2-3          
1 41855U 16067H   25081.51003491  .00082624  00000+0  20704-2 0  9998
2 41855  98.0833 285.2796 0006990 182.0925 178.0291 15.39725085458208
CORVUS BC2              
1 42846U 17042X   25081.72914617  .00011903  00000+0  90935-3 0  9993
2 42846  97.3689 258.1760 0013305 202.6528 157.4112 15.02027760419199
CORVUS BC1              
1 42847U 17042Y   25081.45997714  .00014165  00000+0  10747-2 0  9998
2 42847  97.3706 258.3875 0012666 182.9763 177.1389 15.02257796419176
MIRATA                  
1 43015U 17073C   25082.11604475  .00138773  00000+0  31592-2 0  9996
2 43015  97.5519 334.0801 0103777  10.7444 349.5982 15.36924671398706
MAKERSAT 0              
1 43016U 17073D   25081.63997129  .00042736  00000+0  18218-2 0  9997
2 43016  97.5324 320.6958 0157358  53.6193 307.9437 15.12211487397795
SIRION PATHFINDER-2     
1 43759U 18099B   25081.89107194  .00018504  00000+0  11809-2 0  9998
2 43759  97.4886 136.7232 0010931  61.6037 298.6292 15.08681409344442
CORVUS BC4              
1 43767U 18099K   25081.71408270  .00014184  00000+0  94146-3 0  9993
2 43767  97.4699 132.7282 0010980 112.4363 247.8029 15.07291621344272
MOVE-II                 
1 43780U 18099Y   25082.17813410  .00176496  00000+0  31328-2 0  9992
2 43780  97.4744 153.4999 0002370 107.0849 253.0661 15.49566997345567
SPACEBEE-7              
1 43816U 18099BL  25081.64993943  .00067355  00000+0  22924-2 0  9998
2 43816  97.5045 150.7003 0006451  45.9859 314.1912 15.30145613344704
SHIELDS 1               
1 43850U 18104B   25081.44947745  .00065112  00000+0  97049-3 0  9990
2 43850  85.0132  92.0332 0011045  94.9701 265.2819 15.54783038349138
SONATE                  
1 44400U 19038Q   25082.03932112  .00150959  00000+0  14458-2 0  9993
2 44400  97.7054 100.1156 0010054 161.9725 198.1893 15.66129360317189
DUCHIFAT-3              
1 44854U 19089C   25082.18865961  .00078939  00000+0  20272-2 0  9993
2 44854  36.9461 130.7979 0005784 247.3996 112.6146 15.38157958290831
M2 PATHFINDER           
1 45727U 20037E   25081.45523247  .00014553  00000+0  11324-2 0  9995
2 45727  97.8082 263.5575 0011930 247.2314 112.7650 15.01308418257637
NETSAT-4                
1 46504U 20068U   25081.88374712  .00039797  00000+0  14874-2 0  9991
2 46504  97.8402  55.4650 0010592 111.3410 248.8959 15.27188884246520
NETSAT-3                
1 46505U 20068V   25081.87148713  .00037149  00000+0  14394-2 0  9997
2 46505  97.8398  54.5679 0009766 119.0922 241.1294 15.26016217246493
NETSAT-1                
1 46506U 20068W   25081.89107853  .00025275  00000+0  11070-2 0  9995
2 46506  97.8415  52.9505 0008746 129.4841 230.7169 15.21977135246389
NETSAT-2                
1 46507U 20068X   25081.85580533  .00039889  00000+0  15045-2 0  9994
2 46507  97.8395  54.9699 0007949 129.6693 230.5247 15.26909145246469
WILDTRACKCUBE-SIMBA     
1 47941U 21022K   25082.15997051  .00064078  00000+0  16216-2 0  9998
2 47941  97.4302 345.2078 0008843 225.3104 134.7421 15.39492651221104
GRBALPHA                
1 47959U 21022AD  25082.15747596  .00220107  00000+0  24940-2 0  9994
2 47959  97.4254 351.2726 0006395 178.7199 181.4076 15.61651529220325
LEDSAT                  
1 49069U 21073D   25082.19852026  .00102832  00000+0  18552-2 0  9999
2 49069  97.3957 161.0931 0010459   5.5248 354.6117 15.49327877199250
ROBUSTA-1F (MTCUBE 2)   
1 53109U 22080E   25080.43817281 -.00000003  00000+0  00000+0 0  9991
2 53109  70.1184  95.7002 0008473  24.8626 335.2441  6.42584471 62971
SITRO-AIS 5 (KATYS)     
1 57176U 23091L   25082.22327436  .00028442  00000+0  14101-2 0  9995
2 57176  97.5693 139.1164 0013866 237.8922 122.0966 15.17613264 95689
SITRO-AIS 6 (CHIRKIN)   
1 57192U 23091AC  25082.07456070  .00026318  00000+0  13083-2 0  9991
2 57192  97.5690 138.9899 0013721 237.9726 122.0175 15.17537733 95665
SITRO-AIS 8 (ANOKHIN)   
1 57193U 23091AD  25082.18107416  .00031494  00000+0  15127-2 0  9993
2 57193  97.5684 139.4474 0013431 237.6838 122.3096 15.18701570 95706
SITRO-AIS 7 (FARTUSHNIY)
1 57194U 23091AE  25082.15758291  .00027785  00000+0  13834-2 0  9995
2 57194  97.5690 139.0229 0013636 238.5271 121.4630 15.17472112 95672
SITRO-AIS 10 (BURDAEV)  
1 57199U 23091AK  25082.19391060  .00035558  00000+0  15687-2 0  9996
2 57199  97.5694 141.3890 0009546 219.5143 140.5397 15.21644747 95822
SITRO-AIS 9 (SHCHUKIN)  
1 57201U 23091AM  25082.20320506  .00035078  00000+0  15535-2 0  9998
2 57201  97.5691 141.3365 0009476 219.3953 140.6594 15.21516733 95822
SITRO-AIS 12 (SMIRENNIY)
1 57204U 23091AQ  25082.19573261  .00035512  00000+0  15635-2 0  9991
2 57204  97.5699 141.5765 0009561 213.4711 146.5922 15.21714339 95834
SITRO-AIS 11 (SHEFFER)  
1 57208U 23091AU  25081.89501013  .00037041  00000+0  16235-2 0  9993
2 57208  97.5700 141.3428 0009350 214.4887 145.5743 15.21859665 95793
VERONIKA                
1 58261U 23174F   25082.16462573  .00146306  00000+0  24679-2 0  9999
2 58261  97.4200 164.7961 0005915 313.2961  46.7797 15.51114282 76457
ROBUSTA-1E (ENSO)       
1 58470U 23185J   25082.20112861  .00090098  00000+0  18196-2 0  9993
2 58470  97.3819 155.3227 0006811   5.7491 354.3836 15.46148955 72885
SITRO-AIS 29            
1 59052U 24039B   25082.19160768  .00285820  00000+0  22268-2 0  9990
2 59052  97.4135  54.8315 0001067 221.7933 138.3248 15.70853804 59621
SITRO-AIS 30            
1 59053U 24039C   25082.21822567  .00250805  00000+0  21310-2 0  9998
2 59053  97.4136  54.6277 0001600 261.2230  98.8850 15.68849531 59606
SITRO-AIS 31            
1 59054U 24039D   25082.20163352  .00280550  00000+0  22485-2 0  9992
2 59054  97.4147  54.8211 0001119 259.3368 100.7768 15.70184883 59633
SITRO-AIS 33            
1 59055U 24039E   25082.16860338  .00295208  00000+0  23390-2 0  9998
2 59055  97.4139  54.8662 0001009 234.6555 125.4613 15.70419272 59622
SITRO-AIS 35            
1 59056U 24039F   25082.21559485  .00284028  00000+0  22117-2 0  9997
2 59056  97.4147  54.9620 0000511 234.5706 125.5509 15.70870748 59636
SITRO-AIS 32            
1 59057U 24039G   25082.16471691  .00270566  00000+0  22409-2 0  9990
2 59057  97.4156  54.7327 0001106 263.0154  97.0982 15.69415342 59613
SITRO-AIS 34            
1 59058U 24039H   25082.17063224  .00283931  00000+0  22553-2 0  9991
2 59058  97.4143  54.8687 0000852 234.5710 125.5473 15.70391763 59623
SITRO-AIS 36            
1 59059U 24039J   25082.21505578  .00275787  00000+0  22131-2 0  9992
2 59059  97.4128  54.9438 0000763 218.4160 141.7048 15.70168310 59632
SITRO-AIS 49            
1 59060U 24039K   25082.20227206  .00266515  00000+0  22235-2 0  9996
2 59060  97.4138  54.8204 0001064 252.0337 108.0808 15.69249313 59620
SITRO-AIS 50            
1 59061U 24039L   25082.19764338  .00301020  00000+0  22450-2 0  9997
2 59061  97.4120  55.1155 0001141 197.1443 162.9782 15.71857763 59643
SITRO-AIS 51            
1 59062U 24039M   25082.17858175  .00305797  00000+0  22375-2 0  9990
2 59062  97.4124  55.1419 0001212 196.5367 163.5857 15.72299294 59648
SITRO-AIS 52            
1 59063U 24039N   25082.15314232  .00323797  00000+0  23495-2 0  9994
2 59063  97.4138  55.1933 0000647 190.7163 169.4087 15.72445291 59646
SITRO-AIS 25            
1 59066U 24039R   25082.22062863  .00013054  00000+0  11160-2 0  9993
2 59066  95.3793 286.7263 0160008  99.0939 262.8427 14.88216566 57530
SITRO-AIS 26            
1 59067U 24039S   25082.17156645  .00013976  00000+0  11982-2 0  9995
2 59067  95.3794 286.6640 0160305  99.4284 262.5100 14.88069416 57521
SITRO-AIS 27            
1 59068U 24039T   25082.18340832  .00014197  00000+0  12091-2 0  9998
2 59068  95.3797 286.7685 0159659  98.8622 263.0715 14.88383101 57533
SITRO-AIS 28            
1 59071U 24039U   25082.17261021  .00013970  00000+0  11892-2 0  9999
2 59071  95.3797 286.7833 0159470  98.8470 263.0846 14.88422267 57536
GRBBETA                 
1 60237U 24128C   25081.85714794  .00016954  00000+0  12865-2 0  9994
2 60237  61.9942 353.8516 0044557  40.3737 320.0646 15.01580097 38379
OOV-CUBE (TUBSAT-30)    
1 60240U 24128F   25081.86723543  .00010966  00000+0  88482-3 0  9997
2 60240  61.9985 355.6368 0043478  36.7133 323.6921 14.99569569 38355
ROBUSTA-3A (MEDITERRAN*)
1 60243U 24128J   25081.85510695  .00028106  00000+0  20459-2 0  9995
2 60243  61.9910 353.7544 0042734  33.7830 326.5971 15.02962593 38385
LASARSAT                
1 62391U 24247Q   25081.81291596  .00046949  00000+0  19898-2 0  9995
2 62391  44.9926 227.9963 0007060 286.6213  73.3892 15.22468658 14044
CROCUBE                 
1 62394U 24247T   25081.81416578  .00047629  00000+0  20143-2 0  9998
2 62394  44.9915 228.0010 0007684 287.6170  72.3871 15.22531255 14045
